OBJECT_NAME,OBJECT_ID,EPOCH,MEAN_MOTION,ECCENTRICITY,INCLINATION,RA_OF_ASC_NODE,ARG_OF_PERICENTER,MEAN_ANOMALY,EPHEMERIS_TYPE,CLASSIFICATION_TYPE,NORAD_CAT_ID,ELEMENT_SET_NO,REV_AT_EPOCH,BSTAR,MEAN_MOTION_DOT,MEAN_MOTION_DDOT
ONEWEB-0053,2020-008AC,2026-07-11T13:23:32.728416,13.10369256,.00015546,87.8812,31.4266,73.5914,286.5384,0,U,45157,999,31110,.71611051E-3,.263E-5,0
ONEWEB-0054,2020-008AD,2026-07-11T14:14:52.580832,13.10377134,.00017488,87.8823,31.4046,86.8068,273.3260,0,U,45158,999,31122,-.14625618E-2,-.498E-5,0
ONEWEB-0056,2020-008AE,2026-07-11T15:23:03.950880,13.10369046,.00016851,87.8814,31.3876,71.3766,288.7544,0,U,45159,999,31138,-.36379849E-3,-.114E-5,0
ONEWEB-0057,2020-008AF,2026-07-11T13:57:56.208384,13.10372527,.00016324,87.8821,31.4124,70.1536,289.9768,0,U,45160,999,31154,-.17869821E-2,-.611E-5,0
ONEWEB-0058,2020-008AG,2026-07-11T13:38:55.584960,13.10346906,.0002104,87.8794,31.4158,97.0157,263.1209,0,U,45161,999,31161,.12985131E-1,.4546E-4,0
ONEWEB-0059,2020-008AH,2026-07-11T13:33:32.672736,13.10367595,.0001549,87.8813,31.4194,85.6832,274.4473,0,U,45162,999,31151,-.33480578E-3,-.104E-5,0
ONEWEB-0062,2020-008AJ,2026-07-11T14:07:19.238304,13.10374645,.00019746,87.8826,31.4044,94.3804,265.7549,0,U,45163,999,31138,-.18409615E-2,-.63E-5,0
ONEWEB-0065,2020-008AK,2026-07-11T13:06:15.675264,13.10374552,.00018559,87.8811,31.4182,78.5908,281.5428,0,U,45164,999,31107,.19798549E-2,.704E-5,0
ONEWEB-0066,2020-020A,2026-07-11T13:28:47.338464,13.11422641,.00019209,87.8894,16.2188,98.3222,261.8124,0,U,45424,999,30587,.54442544E-3,.206E-5,0
ONEWEB-0067,2020-020B,2026-07-11T14:23:07.719360,13.11423295,.00017608,87.8902,16.1360,84.5699,275.5630,0,U,45425,999,30593,-.49467988E-3,-.163E-5,0
ONEWEB-0080,2020-020C,2026-07-11T14:22:42.907008,13.11414512,.00020245,87.8893,16.2087,97.6534,262.4824,0,U,45426,999,30590,-.29266541E-3,-.91E-6,0
ONEWEB-0090,2020-020D,2026-07-11T13:14:20.616000,13.11418580,.00018785,87.8898,16.2225,91.4136,268.7207,0,U,45427,999,30586,-.7252609E-3,-.244E-5,0
ONEWEB-0061,2020-020E,2026-07-11T14:00:20.668320,13.11415885,.00018204,87.8883,16.2002,89.3795,270.7542,0,U,45428,999,30582,.15919004E-2,.577E-5,0
ONEWEB-0081,2020-020F,2026-07-11T13:33:41.214240,13.11417932,.00016322,87.8885,16.2128,87.4103,272.7212,0,U,45429,999,30593,.85356328E-3,.315E-5,0
ONEWEB-0069,2020-020G,2026-07-11T13:36:19.866240,13.11420450,.00016286,87.8887,16.2157,90.8310,269.3004,0,U,45430,999,30586,.10984205E-2,.402E-5,0
ONEWEB-0031,2020-020H,2026-07-11T12:37:32.780640,13.11415963,.00019162,87.8875,16.2266,95.1080,265.0267,0,U,45431,999,30584,-.56395284E-3,-.187E-5,0
ONEWEB-0027,2020-020J,2026-07-11T11:37:55.123392,13.17661762,.00024036,87.9049,1.0231,95.6308,264.5098,0,U,45432,999,30955,-.97678917E-2,-.3779E-4,0
ONEWEB-0064,2020-020K,2026-07-11T12:35:04.556256,13.11414257,.00020302,87.8871,16.2193,93.2027,266.9333,0,U,45433,999,30587,-.94980248E-3,-.324E-5,0
ONEWEB-0018,2020-020L,2026-07-11T13:21:15.879456,13.11418378,.00015723,87.8891,16.2147,100.6115,259.5190,0,U,45434,999,30582,-.10750859E-3,-.25E-6,0
ONEWEB-0083,2020-020M,2026-07-11T13:07:00.900480,13.11418440,.00018751,87.8895,16.2110,92.9888,267.1455,0,U,45435,999,30586,-.1073052E-2,-.368E-5,0
ONEWEB-0095,2020-020N,2026-07-11T12:54:48.077280,13.11416154,.00024057,87.8887,16.2210,78.2345,281.9053,0,U,45436,999,30586,-.144135E-2,-.498E-5,0
ONEWEB-0092,2020-020P,2026-07-11T13:38:46.284864,13.11415264,.00016423,87.8892,16.2062,94.5662,265.5654,0,U,45437,999,30598,.11088744E-2,.406E-5,0
ONEWEB-0085,2020-020Q,2026-07-11T13:06:37.018656,13.11418421,.00018648,87.8881,16.2159,89.2522,270.8819,0,U,45438,999,30586,-.99948968E-3,-.342E-5,0
ONEWEB-0096,2020-020R,2026-07-11T13:09:15.150528,13.11417741,.00019679,87.8884,16.2124,87.5707,272.5647,0,U,45439,999,30585,-.98247189E-3,-.336E-5,0
ONEWEB-0037,2020-020S,2026-07-11T13:47:05.595648,13.11416151,.00019842,87.8898,16.1803,87.2335,272.9020,0,U,45440,999,30589,.15032367E-2,.545E-5,0
ONEWEB-0042,2020-020T,2026-07-11T12:54:24.682752,13.11416942,.00017675,87.8888,16.2113,87.2756,272.8574,0,U,45441,999,30585,-.1277393E-2,-.44E-5,0
ONEWEB-0098,2020-020U,2026-07-11T12:48:29.446560,13.11414589,.0001879,87.8885,16.2211,91.5821,268.5522,0,U,45442,999,30583,-.14258215E-2,-.493E-5,0
ONEWEB-0055,2020-020V,2026-07-11T14:07:40.493568,13.11415192,.00018926,87.8883,16.2088,92.8450,267.2895,0,U,45443,999,30581,.10081517E-2,.37E-5,0
ONEWEB-0093,2020-020W,2026-07-11T13:46:48.396000,13.10893340,.00015564,87.8884,16.2071,86.7091,273.4215,0,U,45444,999,30587,.18304544E-2,.657E-5,0
ONEWEB-0029,2020-020X,2026-07-11T14:17:50.026560,13.11413675,.00015964,87.8881,16.2081,89.9408,270.1903,0,U,45445,999,30585,.13958678E-4,.18E-6,0
